ONEWEB-0161             
1 48053U 21025M   26063.27239653 -.00000001  00000+0 -38234-4 0  9990
2 48053  87.9039 341.0880 0001925  76.3449 283.7895 13.13470174239739
ONEWEB-0158             
1 48054U 21025N   26063.76501519  .00000224  00000+0  57839-3 0  9994
2 48054  87.9051 340.9805 0001525  86.1628 273.9676 13.13469232239925
ONEWEB-0157             
1 48055U 21025P   26063.25715748 -.00000236  00000+0 -68052-3 0  9994
2 48055  87.9043 341.0859 0002173  78.0020 282.1353 13.13469148239799
ONEWEB-0162             
1 48056U 21025Q   26063.76656557  .00000227  00000+0  58665-3 0  9990
2 48056  87.9049 340.9893 0001771  72.7741 287.3582 13.13471001239833
ONEWEB-0155             
1 48057U 21025R   26063.77347592  .00000036  00000+0  64289-4 0  9996
2 48057  87.9042 340.9872 0001896  80.7386 279.3957 13.13468382239976
ONEWEB-0149             
1 48058U 21025S   26063.26223420 -.00000250  00000+0 -72007-3 0  9990
2 48058  87.9047 341.0852 0001753  71.4526 288.6794 13.13470009239710
ONEWEB-0148             
1 48059U 21025T   26063.30117747  .00000338  00000+0  89027-3 0  9995
2 48059  87.9039 341.0926 0001966  61.5542 298.5785 13.13471009239843
ONEWEB-0160             
1 48060U 21025U   26063.31809777 -.00000035  00000+0 -13075-3 0  9995
2 48060  87.9040 341.0856 0001027  89.8743 270.2504 13.13469086239795
ONEWEB-0163             
1 48061U 21025V   26063.30287132  .00000302  00000+0  79258-3 0  9990
2 48061  87.9044 341.0808 0002043  78.8000 281.3359 13.13469539239918
ONEWEB-0159             
1 48062U 21025W   26063.75146655  .00000321  00000+0  84335-3 0  9997
2 48062  87.9048 340.9780 0001956  74.3015 285.8330 13.13468688239898
ONEWEB-0164             
1 48063U 21025X   26063.27577831  .00000133  00000+0  32812-3 0  9993
2 48063  87.9049 341.0788 0001670  80.1564 279.9754 13.13470071239812
ONEWEB-0167             
1 48064U 21025Y   26063.76079986  .00000313  00000+0  82220-3 0  9994
2 48064  87.9040 341.0024 0002248  92.4883 267.6503 13.13469762239865
ONEWEB-0166             
1 48065U 21025Z   26063.32656161 -.00000196  00000+0 -57132-3 0  9998
2 48065  87.9048 341.0506 0001834  72.4435 287.6894 13.13469356239886
ONEWEB-0151             
1 48066U 21025AA  26063.25208064 -.00000211  00000+0 -61278-3 0  9990
2 48066  87.9040 341.0915 0001786  82.3281 277.8051 13.13469042239819
ONEWEB-0170             
1 48067U 21025AB  26063.26054013 -.00000221  00000+0 -64041-3 0  9997
2 48067  87.9040 341.0915 0001556  94.1120 266.0187 13.13469999239774
ONEWEB-0168             
1 48068U 21025AC  26063.77855185 -.00000097  00000+0 -30135-3 0  9991
2 48068  87.9051 340.9798 0001923  76.3973 283.7370 13.13468621239850
ONEWEB-0173             
1 48069U 21025AD  26063.77009439  .00000137  00000+0  34116-3 0  9991
2 48069  87.9045 340.9886 0002119  83.4541 276.6829 13.13468995240092
