[{"OBJECT_NAME":"ONEWEB-0161","OBJECT_ID":"2021-025M","EPOCH":"2026-03-04T06:32:15.060192","MEAN_MOTION":13.13470174,"ECCENTRICITY":0.00019257,"INCLINATION":87.9039,"RA_OF_ASC_NODE":341.088,"ARG_OF_PERICENTER":76.3449,"MEAN_ANOMALY":283.7895,"EPHEMERIS_TYPE":0,"CLASSIFICATION_TYPE":"U","NORAD_CAT_ID":48053,"ELEMENT_SET_NO":999,"REV_AT_EPOCH":23973,"BSTAR":-3.823383e-5,"MEAN_MOTION_DOT":-1.0e-8,"MEAN_MOTION_DDOT":0},{"OBJECT_NAME":"ONEWEB-0158","OBJECT_ID":"2021-025N","EPOCH":"2026-03-04T18:21:37.312416","MEAN_MOTION":13.13469232,"ECCENTRICITY":0.0001525,"INCLINATION":87.9051,"RA_OF_ASC_NODE":340.9805,"ARG_OF_PERICENTER":86.1628,"MEAN_ANOMALY":273.9676,"EPHEMERIS_TYPE":0,"CLASSIFICATION_TYPE":"U","NORAD_CAT_ID":48054,"ELEMENT_SET_NO":999,"REV_AT_EPOCH":23992,"BSTAR":0.00057839,"MEAN_MOTION_DOT":2.24e-6,"MEAN_MOTION_DDOT":0},{"OBJECT_NAME":"ONEWEB-0157","OBJECT_ID":"2021-025P","EPOCH":"2026-03-04T06:10:18.406272","MEAN_MOTION":13.13469148,"ECCENTRICITY":0.00021731,"INCLINATION":87.9043,"RA_OF_ASC_NODE":341.0859,"ARG_OF_PERICENTER":78.002,"MEAN_ANOMALY":282.1353,"EPHEMERIS_TYPE":0,"CLASSIFICATION_TYPE":"U","NORAD_CAT_ID":48055,"ELEMENT_SET_NO":999,"REV_AT_EPOCH":23979,"BSTAR":-0.00068052195,"MEAN_MOTION_DOT":-2.36e-6,"MEAN_MOTION_DDOT":0},{"OBJECT_NAME":"ONEWEB-0162","OBJECT_ID":"2021-025Q","EPOCH":"2026-03-04T18:23:51.265248","MEAN_MOTION":13.13471001,"ECCENTRICITY":0.0001771,"INCLINATION":87.9049,"RA_OF_ASC_NODE":340.9893,"ARG_OF_PERICENTER":72.7741,"MEAN_ANOMALY":287.3582,"EPHEMERIS_TYPE":0,"CLASSIFICATION_TYPE":"U","NORAD_CAT_ID":48056,"ELEMENT_SET_NO":999,"REV_AT_EPOCH":23983,"BSTAR":0.00058665,"MEAN_MOTION_DOT":2.27e-6,"MEAN_MOTION_DDOT":0},{"OBJECT_NAME":"ONEWEB-0155","OBJECT_ID":"2021-025R","EPOCH":"2026-03-04T18:33:48.319488","MEAN_MOTION":13.13468382,"ECCENTRICITY":0.0001896,"INCLINATION":87.9042,"RA_OF_ASC_NODE":340.9872,"ARG_OF_PERICENTER":80.7386,"MEAN_ANOMALY":279.3957,"EPHEMERIS_TYPE":0,"CLASSIFICATION_TYPE":"U","NORAD_CAT_ID":48057,"ELEMENT_SET_NO":999,"REV_AT_EPOCH":23997,"BSTAR":6.4289e-5,"MEAN_MOTION_DOT":3.6e-7,"MEAN_MOTION_DDOT":0},{"OBJECT_NAME":"ONEWEB-0149","OBJECT_ID":"2021-025S","EPOCH":"2026-03-04T06:17:37.034880","MEAN_MOTION":13.13470009,"ECCENTRICITY":0.00017536,"INCLINATION":87.9047,"RA_OF_ASC_NODE":341.0852,"ARG_OF_PERICENTER":71.4526,"MEAN_ANOMALY":288.6794,"EPHEMERIS_TYPE":0,"CLASSIFICATION_TYPE":"U","NORAD_CAT_ID":48058,"ELEMENT_SET_NO":999,"REV_AT_EPOCH":23971,"BSTAR":-0.00072006886,"MEAN_MOTION_DOT":-2.5e-6,"MEAN_MOTION_DDOT":0},{"OBJECT_NAME":"ONEWEB-0148","OBJECT_ID":"2021-025T","EPOCH":"2026-03-04T07:13:41.733408","MEAN_MOTION":13.13471009,"ECCENTRICITY":0.00019667,"INCLINATION":87.9039,"RA_OF_ASC_NODE":341.0926,"ARG_OF_PERICENTER":61.5542,"MEAN_ANOMALY":298.5785,"EPHEMERIS_TYPE":0,"CLASSIFICATION_TYPE":"U","NORAD_CAT_ID":48059,"ELEMENT_SET_NO":999,"REV_AT_EPOCH":23984,"BSTAR":0.00089026715,"MEAN_MOTION_DOT":3.38e-6,"MEAN_MOTION_DDOT":0},{"OBJECT_NAME":"ONEWEB-0160","OBJECT_ID":"2021-025U","EPOCH":"2026-03-04T07:38:03.647328","MEAN_MOTION":13.13469086,"ECCENTRICITY":0.00010272,"INCLINATION":87.904,"RA_OF_ASC_NODE":341.0856,"ARG_OF_PERICENTER":89.8743,"MEAN_ANOMALY":270.2504,"EPHEMERIS_TYPE":0,"CLASSIFICATION_TYPE":"U","NORAD_CAT_ID":48060,"ELEMENT_SET_NO":999,"REV_AT_EPOCH":23979,"BSTAR":-0.00013075349,"MEAN_MOTION_DOT":-3.5e-7,"MEAN_MOTION_DDOT":0},{"OBJECT_NAME":"ONEWEB-0163","OBJECT_ID":"2021-025V","EPOCH":"2026-03-04T07:16:08.082048","MEAN_MOTION":13.13469539,"ECCENTRICITY":0.00020431,"INCLINATION":87.9044,"RA_OF_ASC_NODE":341.0808,"ARG_OF_PERICENTER":78.8,"MEAN_ANOMALY":281.3359,"EPHEMERIS_TYPE":0,"CLASSIFICATION_TYPE":"U","NORAD_CAT_ID":48061,"ELEMENT_SET_NO":999,"REV_AT_EPOCH":23991,"BSTAR":0.00079257891,"MEAN_MOTION_DOT":3.02e-6,"MEAN_MOTION_DDOT":0},{"OBJECT_NAME":"ONEWEB-0159","OBJECT_ID":"2021-025W","EPOCH":"2026-03-04T18:02:06.709920","MEAN_MOTION":13.13468688,"ECCENTRICITY":0.0001956,"INCLINATION":87.9048,"RA_OF_ASC_NODE":340.978,"ARG_OF_PERICENTER":74.3015,"MEAN_ANOMALY":285.833,"EPHEMERIS_TYPE":0,"CLASSIFICATION_TYPE":"U","NORAD_CAT_ID":48062,"ELEMENT_SET_NO":999,"REV_AT_EPOCH":23989,"BSTAR":0.00084335,"MEAN_MOTION_DOT":3.21e-6,"MEAN_MOTION_DDOT":0},{"OBJECT_NAME":"ONEWEB-0164","OBJECT_ID":"2021-025X","EPOCH":"2026-03-04T06:37:07.245984","MEAN_MOTION":13.13470071,"ECCENTRICITY":0.00016709,"INCLINATION":87.9049,"RA_OF_ASC_NODE":341.0788,"ARG_OF_PERICENTER":80.1564,"MEAN_ANOMALY":279.9754,"EPHEMERIS_TYPE":0,"CLASSIFICATION_TYPE":"U","NORAD_CAT_ID":48063,"ELEMENT_SET_NO":999,"REV_AT_EPOCH":23981,"BSTAR":0.00032811509,"MEAN_MOTION_DOT":1.33e-6,"MEAN_MOTION_DDOT":0},{"OBJECT_NAME":"ONEWEB-0167","OBJECT_ID":"2021-025Y","EPOCH":"2026-03-04T18:15:33.107904","MEAN_MOTION":13.13469762,"ECCENTRICITY":0.0002248,"INCLINATION":87.904,"RA_OF_ASC_NODE":341.0024,"ARG_OF_PERICENTER":92.4883,"MEAN_ANOMALY":267.6503,"EPHEMERIS_TYPE":0,"CLASSIFICATION_TYPE":"U","NORAD_CAT_ID":48064,"ELEMENT_SET_NO":999,"REV_AT_EPOCH":23986,"BSTAR":0.0008222,"MEAN_MOTION_DOT":3.13e-6,"MEAN_MOTION_DDOT":0},{"OBJECT_NAME":"ONEWEB-0166","OBJECT_ID":"2021-025Z","EPOCH":"2026-03-04T07:50:14.923104","MEAN_MOTION":13.13469356,"ECCENTRICITY":0.00018342,"INCLINATION":87.9048,"RA_OF_ASC_NODE":341.0506,"ARG_OF_PERICENTER":72.4435,"MEAN_ANOMALY":287.6894,"EPHEMERIS_TYPE":0,"CLASSIFICATION_TYPE":"U","NORAD_CAT_ID":48065,"ELEMENT_SET_NO":999,"REV_AT_EPOCH":23988,"BSTAR":-0.00057132109,"MEAN_MOTION_DOT":-1.96e-6,"MEAN_MOTION_DDOT":0},{"OBJECT_NAME":"ONEWEB-0151","OBJECT_ID":"2021-025AA","EPOCH":"2026-03-04T06:02:59.767296","MEAN_MOTION":13.13469042,"ECCENTRICITY":0.00017863,"INCLINATION":87.904,"RA_OF_ASC_NODE":341.0915,"ARG_OF_PERICENTER":82.3281,"MEAN_ANOMALY":277.8051,"EPHEMERIS_TYPE":0,"CLASSIFICATION_TYPE":"U","NORAD_CAT_ID":48066,"ELEMENT_SET_NO":999,"REV_AT_EPOCH":23981,"BSTAR":-0.00061278039,"MEAN_MOTION_DOT":-2.11e-6,"MEAN_MOTION_DDOT":0},{"OBJECT_NAME":"ONEWEB-0170","OBJECT_ID":"2021-025AB","EPOCH":"2026-03-04T06:15:10.667232","MEAN_MOTION":13.13469999,"ECCENTRICITY":0.00015565,"INCLINATION":87.904,"RA_OF_ASC_NODE":341.0915,"ARG_OF_PERICENTER":94.112,"MEAN_ANOMALY":266.0187,"EPHEMERIS_TYPE":0,"CLASSIFICATION_TYPE":"U","NORAD_CAT_ID":48067,"ELEMENT_SET_NO":999,"REV_AT_EPOCH":23977,"BSTAR":-0.00064040638,"MEAN_MOTION_DOT":-2.21e-6,"MEAN_MOTION_DDOT":0},{"OBJECT_NAME":"ONEWEB-0168","OBJECT_ID":"2021-025AC","EPOCH":"2026-03-04T18:41:06.879840","MEAN_MOTION":13.13468621,"ECCENTRICITY":0.0001923,"INCLINATION":87.9051,"RA_OF_ASC_NODE":340.9798,"ARG_OF_PERICENTER":76.3973,"MEAN_ANOMALY":283.737,"EPHEMERIS_TYPE":0,"CLASSIFICATION_TYPE":"U","NORAD_CAT_ID":48068,"ELEMENT_SET_NO":999,"REV_AT_EPOCH":23985,"BSTAR":-0.00030135,"MEAN_MOTION_DOT":-9.7e-7,"MEAN_MOTION_DDOT":0},{"OBJECT_NAME":"ONEWEB-0173","OBJECT_ID":"2021-025AD","EPOCH":"2026-03-04T18:28:56.155296","MEAN_MOTION":13.13468995,"ECCENTRICITY":0.0002119,"INCLINATION":87.9045,"RA_OF_ASC_NODE":340.9886,"ARG_OF_PERICENTER":83.4541,"MEAN_ANOMALY":276.6829,"EPHEMERIS_TYPE":0,"CLASSIFICATION_TYPE":"U","NORAD_CAT_ID":48069,"ELEMENT_SET_NO":999,"REV_AT_EPOCH":24009,"BSTAR":0.00034116,"MEAN_MOTION_DOT":1.37e-6,"MEAN_MOTION_DDOT":0}]
